NORAD_CAT_ID,OBJECT_NAME,OBJECT_TYPE,EPOCH,MEAN_MOTION,ECCENTRICITY,INCLINATION,RA_OF_ASC_NODE,ARG_OF_PERICENTER,MEAN_ANOMALY,BSTAR,MEAN_MOTION_DOT,MEAN_MOTION_DDOT,TLE_LINE0,TLE_LINE1,TLE_LINE2,SEMIMAJOR_AXIS,PERIOD,APOGEE,PERIGEE,DECAYED
53735.0,STARLINK-4618,PAYLOAD,2023-04-19 22:23:36,15.08854821,0.0001016,53.2147,318.9236,78.3304,281.7802,0.00026514,3.936e-05,0.0,0 STARLINK-4618,1 53735U 22107AM  23109.93305795  .00003936  00000-0  26514-3 0  9993,2 53735  53.2147 318.9236 0001016  78.3304 281.7802 15.08854821 35213,6917.835,95.437,540.403,538.997,0.0
53735.0,STARLINK-4618,PAYLOAD,2023-04-20 20:39:00,15.088391,0.0001226,53.2151,314.7591,89.4315,270.6818,6.2981e-05,7.15e-06,0.0,0 STARLINK-4618,1 53735U 22107AM  23110.86042466  .00000715  00000-0  62981-4 0  9991,2 53735  53.2151 314.7591 0001226  89.4315 270.6818 15.08839100 34726,6917.883,95.438,540.596,538.9,0.0
53735.0,STARLINK-4618,PAYLOAD,2023-04-21 06:11:19,15.08836648,0.0001053,53.2151,312.9749,83.1224,276.9888,4.6114e-06,-2.14e-06,0.0,0 STARLINK-4618,1 53735U 22107AM  23111.25786623 -.00000214  00000-0  46114-5 0  9991,2 53735  53.2151 312.9749 0001053  83.1224 276.9888 15.08836648 35416,6917.891,95.438,540.484,539.027,0.0
53735.0,STARLINK-4618,PAYLOAD,2023-04-21 22:05:10,15.08847518,0.0001141,53.2142,310.0014,100.0258,260.0863,0.0002808,4.185e-05,0.0,0 STARLINK-4618,1 53735U 22107AM  23111.92026351  .00004185  00000-0  28080-3 0  9990,2 53735  53.2142 310.0014 0001141 100.0258 260.0863 15.08847518 35510,6917.857,95.437,540.512,538.933,0.0
53735.0,STARLINK-4618,PAYLOAD,2023-04-22 13:59:02,15.0884334,0.0001196,53.2147,307.0267,89.2994,270.8135,0.0001768,2.527e-05,0.0,0 STARLINK-4618,1 53735U 22107AM  23112.58266559  .00002527  00000-0  17680-3 0  9991,2 53735  53.2147 307.0267 0001196  89.2994 270.8135 15.08843340 34986,6917.87,95.437,540.563,538.908,0.0
53735.0,STARLINK-4618,PAYLOAD,2023-04-23 12:14:26,15.08836442,0.0001109,53.2151,302.8643,89.8052,270.3068,2.9675e-05,1.84e-06,0.0,0 STARLINK-4618,1 53735U 22107AM  23113.51003085  .00000184  00000-0  29675-4 0  9993,2 53735  53.2151 302.8643 0001109  89.8052 270.3068 15.08836442 35758,6917.891,95.438,540.523,538.989,0.0
53735.0,STARLINK-4618,PAYLOAD,2023-04-23 20:11:22,15.08843295,0.0001285,53.2151,301.3773,94.3279,265.786,4.057e-05,3.58e-06,0.0,0 STARLINK-4618,1 53735U 22107AM  23113.84122799  .00000358  00000-0  40570-4 0  9993,2 53735  53.2151 301.3773 0001285  94.3279 265.7860 15.08843295 35801,6917.87,95.437,540.624,538.846,0.0
53735.0,STARLINK-4618,PAYLOAD,2023-04-24 12:05:12,15.08864187,0.0001124,53.2159,298.4038,82.778,277.334,0.00045637,6.987e-05,0.0,0 STARLINK-4618,1 53735U 22107AM  23114.50361771  .00006987  00000-0  45637-3 0  9994,2 53735  53.2159 298.4038 0001124  82.7780 277.3340 15.08864187 35275,6917.806,95.436,540.449,538.894,0.0
53735.0,STARLINK-4618,PAYLOAD,2023-04-25 11:56:00,15.08791776,0.0001133,53.2141,293.9437,104.4174,255.6944,-0.0019139,-0.00030578,0.0,0 STARLINK-4618,1 53735U 22107AM  23115.49722835 -.00030578  00000-0 -19139-2 0  9997,2 53735  53.2141 293.9437 0001133 104.4174 255.6944 15.08791776 35427,6918.028,95.441,540.677,539.109,0.0
53735.0,STARLINK-4618,PAYLOAD,2023-04-26 11:46:50,15.08815825,6.61e-05,53.2145,289.4847,111.1075,248.9988,0.001387,0.0002184,0.0,0 STARLINK-4618,1 53735U 22107AM  23116.49085754  .00021840  00000-0  13870-2 0  9996,2 53735  53.2145 289.4847 0000661 111.1075 248.9988 15.08815825 36208,6917.954,95.439,540.277,539.362,0.0
53735.0,STARLINK-4618,PAYLOAD,2023-04-26 18:08:22,15.0884966,0.0001081,53.2135,288.2945,130.578,229.5306,0.0017426,0.00027562,0.0,0 STARLINK-4618,1 53735U 22107AM  23116.75581294  .00027562  00000-0  17426-2 0  9993,2 53735  53.2135 288.2945 0001081 130.5780 229.5306 15.08849660 36245,6917.851,95.437,540.464,538.968,0.0
53735.0,STARLINK-4618,PAYLOAD,2023-04-27 14:48:21,15.08869622,8.61e-05,53.2123,284.431,134.5452,225.561,0.00061881,9.582e-05,0.0,0 STARLINK-4618,1 53735U 22107AM  23117.61691914  .00009582  00000-0  61881-3 0  9997,2 53735  53.2123 284.4310 0000861 134.5452 225.5610 15.08869622 35749,6917.79,95.436,540.25,539.059,0.0
53735.0,STARLINK-4618,PAYLOAD,2023-04-28 03:31:27,15.08861076,0.0004625,53.2092,282.0459,74.0285,286.1216,0.00052046,8.01e-05,0.0,0 STARLINK-4618,1 53735U 22107AM  23118.14684918  .00008010  00000-0  52046-3 0  9990,2 53735  53.2092 282.0459 0004625  74.0285 286.1216 15.08861076 35825,6917.816,95.436,542.88,536.481,0.0
53735.0,STARLINK-4618,PAYLOAD,2023-04-28 11:28:21,15.08854653,0.0001153,53.2124,280.5648,124.9756,235.1344,-2.8747e-05,-7.46e-06,0.0,0 STARLINK-4618,1 53735U 22107AM  23118.47803148 -.00000746  00000-0 -28747-4 0  9996,2 53735  53.2124 280.5648 0001153 124.9756 235.1344 15.08854653 36500,6917.836,95.437,540.498,538.903,0.0
53735.0,STARLINK-4618,PAYLOAD,2023-04-29 03:22:13,15.08848716,4.73e-05,53.214,277.5892,121.4856,238.6182,-1.3227e-05,-4.98e-06,0.0,0 STARLINK-4618,1 53735U 22107AM  23119.14042961 -.00000498  00000-0 -13227-4 0  9990,2 53735  53.2140 277.5892 0000473 121.4856 238.6182 15.08848716 35973,6917.854,95.437,540.046,539.392,0.0
53735.0,STARLINK-4618,PAYLOAD,2023-04-29 12:54:32,15.0884271,6.74e-05,53.2139,275.8033,110.9908,249.1156,-2.8552e-05,-7.42e-06,0.0,0 STARLINK-4618,1 53735U 22107AM  23119.53787072 -.00000742  00000-0 -28552-4 0  9991,2 53735  53.2139 275.8033 0000674 110.9908 249.1156 15.08842710 36666,6917.872,95.437,540.203,539.271,0.0
53735.0,STARLINK-4618,PAYLOAD,2023-04-30 09:34:32,15.0884648,0.0001923,53.2119,271.9404,78.0625,282.0582,0.00019372,2.797e-05,0.0,0 STARLINK-4618,1 53735U 22107AM  23120.39899285  .00002797  00000-0  19372-3 0  9996,2 53735  53.2119 271.9404 0001923  78.0625 282.0582 15.08846480 36792,6917.861,95.437,541.056,538.395,0.0
53735.0,STARLINK-4618,PAYLOAD,2023-04-30 14:20:42,15.0883954,9.55e-05,53.213,271.0443,88.7768,271.3333,9.2687e-05,1.188e-05,0.0,0 STARLINK-4618,1 53735U 22107AM  23120.59771328  .00001188  00000-0  92687-4 0  9999,2 53735  53.2130 271.0443 0000955  88.7768 271.3333 15.08839540 36197,6917.882,95.438,540.407,539.086,0.0
53735.0,STARLINK-4618,PAYLOAD,2023-05-01 09:25:20,15.08835388,9.36e-05,53.2156,267.4775,96.6682,263.4417,4.474e-05,4.24e-06,0.0,0 STARLINK-4618,1 53735U 22107AM  23121.39259852  .00000424  00000-0  44740-4 0  9990,2 53735  53.2156 267.4775 0000936  96.6682 263.4417 15.08835388 36948,6917.894,95.438,540.407,539.112,0.0
53735.0,STARLINK-4618,PAYLOAD,2023-05-01 15:46:53,15.0883393,8.46e-05,53.2151,266.2874,100.7375,259.3712,6.7147e-06,-1.81e-06,0.0,0 STARLINK-4618,1 53735U 22107AM  23121.65755984 -.00000181  00000-0  67147-5 0  9994,2 53735  53.2151 266.2874 0000846 100.7375 259.3712 15.08833930 36354,6917.899,95.438,540.349,539.179,0.0
53735.0,STARLINK-4618,PAYLOAD,2023-05-01 17:22:16,15.0883486,7.98e-05,53.2156,265.9906,87.9913,272.117,2.6961e-05,1.41e-06,0.0,0 STARLINK-4618,1 53735U 22107AM  23121.72379994  .00000141  00000-0  26961-4 0  9998,2 53735  53.2156 265.9906 0000798  87.9913 272.1170 15.08834860 36995,6917.896,95.438,540.313,539.209,0.0
53735.0,STARLINK-4618,PAYLOAD,2023-05-02 09:16:07,15.08842036,7.28e-05,53.2153,263.017,84.8305,275.277,0.0002103,3.061e-05,0.0,0 STARLINK-4618,1 53735U 22107AM  23122.38619794  .00003061  00000-0  21030-3 0  9991,2 53735  53.2153 263.0170 0000728  84.8305 275.2770 15.08842036 36464,6917.874,95.437,540.243,539.236,0.0
53735.0,STARLINK-4618,PAYLOAD,2023-05-02 14:02:16,15.08849232,6.51e-05,53.2151,262.1242,87.71,272.3967,0.00022754,3.336e-05,0.0,0 STARLINK-4618,1 53735U 22107AM  23122.58491368  .00003336  00000-0  22754-3 0  9997,2 53735  53.2151 262.1242 0000651  87.7100 272.3967 15.08849232 37127,6917.852,95.437,540.168,539.267,0.0
53735.0,STARLINK-4618,PAYLOAD,2023-05-02 17:13:02,15.08853829,7.31e-05,53.2151,261.5296,78.36,281.7475,0.00030476,4.568e-05,0.0,0 STARLINK-4618,1 53735U 22107AM  23122.71739195  .00004568  00000-0  30476-3 0  9993,2 53735  53.2151 261.5296 0000731  78.3600 281.7475 15.08853829 36516,6917.838,95.437,540.209,539.197,0.0
53735.0,STARLINK-4618,PAYLOAD,2023-05-03 02:45:21,15.08846719,6.46e-05,53.2138,259.7473,68.9479,291.1582,0.00024277,3.579e-05,0.0,0 STARLINK-4618,1 53735U 22107AM  23123.11483460  .00003579  00000-0  24277-3 0  9992,2 53735  53.2138 259.7473 0000646  68.9479 291.1582 15.08846719 36571,6917.86,95.437,540.172,539.278,0.0
53735.0,STARLINK-4618,PAYLOAD,2023-05-03 13:53:04,15.08839182,9.59e-05,53.2156,257.6639,90.8111,269.2991,7.4257e-05,8.94e-06,0.0,0 STARLINK-4618,1 53735U 22107AM  23123.57851983  .00000894  00000-0  74257-4 0  9992,2 53735  53.2156 257.6639 0000959  90.8111 269.2991 15.08839182 36640,6917.883,95.438,540.411,539.084,0.0
53735.0,STARLINK-4618,PAYLOAD,2023-05-03 17:03:50,15.08839548,8.48e-05,53.2151,257.0695,89.3591,270.7499,8.3684e-05,1.044e-05,0.0,0 STARLINK-4618,1 53735U 22107AM  23123.71099972  .00001044  00000-0  83684-4 0  9992,2 53735  53.2151 257.0695 0000848  89.3591 270.7499 15.08839548 37291,6917.882,95.438,540.333,539.16,0.0
53735.0,STARLINK-4618,PAYLOAD,2023-05-04 13:43:49,15.08864188,7.23e-05,53.2157,253.2005,113.7429,246.3639,0.0002914,4.356e-05,0.0,0 STARLINK-4618,1 53735U 22107AM  23124.57210638  .00004356  00000-0  29140-3 0  9996,2 53735  53.2157 253.2005 0000723 113.7429 246.3639 15.08864188 36791,6917.806,95.436,540.172,539.171,0.0
53735.0,STARLINK-4618,PAYLOAD,2023-05-04 15:19:12,15.08868477,7.92e-05,53.2143,252.907,61.8439,298.2633,0.00041815,6.378e-05,0.0,0 STARLINK-4618,1 53735U 22107AM  23124.63834368  .00006378  00000-0  41815-3 0  9994,2 53735  53.2143 252.9070 0000792  61.8439 298.2633 15.08868477 37431,6917.793,95.436,540.206,539.11,0.0
53735.0,STARLINK-4618,PAYLOAD,2023-05-05 08:48:28,15.08840676,8.12e-05,53.2147,249.6342,89.9177,270.1908,0.00014625,2.041e-05,0.0,0 STARLINK-4618,1 53735U 22107AM  23125.36699586  .00002041  00000-0  14625-3 0  9998,2 53735  53.2147 249.6342 0000812  89.9177 270.1908 15.08840676 36910,6917.878,95.438,540.305,539.182,0.0
